NORAD_CAT_ID,OBJECT_NAME,OBJECT_TYPE,EPOCH,MEAN_MOTION,ECCENTRICITY,INCLINATION,RA_OF_ASC_NODE,ARG_OF_PERICENTER,MEAN_ANOMALY,BSTAR,MEAN_MOTION_DOT,MEAN_MOTION_DDOT,TLE_LINE0,TLE_LINE1,TLE_LINE2,SEMIMAJOR_AXIS,PERIOD,APOGEE,PERIGEE,DECAYED
51993.0,STARLINK-3648,PAYLOAD,2022-04-19 20:00:01,15.49927785,0.0001166,53.2168,297.1768,79.5217,166.4575,-0.00092708,-0.00052793,0.0,0 STARLINK-3648,1 51993U 22025AP  22109.83334491 -.00052793  00000-0 -92708-3 0  9994,2 51993  53.2168 297.1768 0001166  79.5217 166.4575 15.49927785  7760,6795.074000000001,92.908,417.731,416.147,0.0
51993.0,STARLINK-3648,PAYLOAD,2022-04-20 04:00:00,15.49915909,9.84e-05,53.2167,295.5828,79.1954,227.72,-0.00039378,-0.00022759,0.0,0 STARLINK-3648,1 51993U 22025AP  22110.16667824 -.00022759  00000-0 -39378-3 0  9994,2 51993  53.2167 295.5828 0000984  79.1954 227.7200 15.49915909  7816,6795.109,92.908,417.642,416.305,0.0
51993.0,STARLINK-3648,PAYLOAD,2022-04-20 14:00:01,15.50045816,0.0001332,53.2172,293.5882,85.6991,27.3534,-0.0060561999999999,-0.003319,0.0,0 STARLINK-3648,1 51993U 22025AP  22110.58334491 -.00331900  00000-0 -60562-2 0  9990,2 51993  53.2172 293.5882 0001332  85.6991  27.3534 15.50045816  3690,6794.729,92.9,417.499,415.689,0.0
51993.0,STARLINK-3648,PAYLOAD,2022-04-20 20:00:01,15.49757779,0.0001144,53.2175,292.3949,93.7206,335.1336,-0.0060802,-0.00329903,0.0,0 STARLINK-3648,1 51993U 22025AP  22110.83334491 -.00329903  00000-0 -60802-2 0  9995,2 51993  53.2175 292.3949 0001144  93.7206 335.1336 15.49757779  7919,6795.571,92.918,418.213,416.659,0.0
51993.0,STARLINK-3648,PAYLOAD,2022-04-20 22:00:00,15.49503287,0.0001195,53.2174,291.9968,83.7251,90.3786,0.0011946,0.00067018,0.0,0 STARLINK-3648,1 51993U 22025AP  22110.91667824  .00067018  00000-0  11946-2 0  9992,2 51993  53.2174 291.9968 0001195  83.7251  90.3786 15.49503287  3670,6796.315,92.933,418.992,417.36800000000005,0.0
51993.0,STARLINK-3648,PAYLOAD,2022-04-21 14:00:01,15.49140667,0.0001222,53.2178,288.8158,76.6426,218.2572,-0.013498,-0.00684577,0.0,0 STARLINK-3648,1 51993U 22025AP  22111.58334491 -.00684577  00000-0 -13498-1 0  9997,2 51993  53.2178 288.8158 0001222  76.6426 218.2572 15.49140667  3691,6797.376,92.955,420.071,418.41,0.0
51993.0,STARLINK-3648,PAYLOAD,2022-04-21 22:00:00,15.48650226,0.0001095999999999,53.2176,287.2309,96.7038,257.9137,-0.013663,-0.00681306,0.0,0 STARLINK-3648,1 51993U 22025AP  22111.91667824 -.00681306  00000-0 -13663-1 0  9994,2 51993  53.2176 287.2309 0001096  96.7038 257.9137 15.48650226  3694,6798.811,92.984,421.421,419.931,0.0
51993.0,STARLINK-3648,PAYLOAD,2022-04-22 04:00:01,15.48287092,0.0001185,53.2175,286.0399,101.9096,207.1758,-0.013959,-0.00695292,0.0,0 STARLINK-3648,1 51993U 22025AP  22112.16668981 -.00695292  00000-0 -13959-1 0  9994,2 51993  53.2175 286.0399 0001185 101.9096 207.1758 15.48287092  8127,6799.874,93.006,422.544,420.9330000000001,0.0
51993.0,STARLINK-3648,PAYLOAD,2022-04-22 14:00:01,15.47675716,0.0001196,53.2176,284.0591,74.9469,37.3466,-0.014215,-0.00693183,0.0,0 STARLINK-3648,1 51993U 22025AP  22112.58334491 -.00693183  00000-0 -14215-1 0  9999,2 51993  53.2176 284.0591 0001196  74.9469  37.3466 15.47675716  3694,6801.6640000000025,93.043,424.343,422.716,0.0
51993.0,STARLINK-3648,PAYLOAD,2022-04-23 12:00:00,15.46332084,0.0001345,53.2176,279.7075,74.0841,106.1817,-0.014837,-0.00690649,0.0,0 STARLINK-3648,1 51993U 22025AP  22113.50001157 -.00690649  00000-0 -14837-1 0  9996,2 51993  53.2176 279.7075 0001345  74.0841 106.1817 15.46332084  8331,6805.604,93.124,428.384,426.55300000000005,0.0
51993.0,STARLINK-3648,PAYLOAD,2022-04-23 14:00:01,15.46108986,0.0001088,53.2175,279.3102,90.7832,193.6821,-0.011952,-0.00554382,0.0,0 STARLINK-3648,1 51993U 22025AP  22113.58334491 -.00554382  00000-0 -11952-1 0  9992,2 51993  53.2175 279.3102 0001088  90.7832 193.6821 15.46108986  3654,6806.2580000000025,93.137,428.864,427.383,0.0
51993.0,STARLINK-3648,PAYLOAD,2022-04-24 12:00:02,15.44868184,0.0001224,53.2179,274.9708,63.2769,284.3257,-0.01564,-0.00692063,0.0,0 STARLINK-3648,1 51993U 22025AP  22114.50002315 -.00692063  00000-0 -15640-1 0  9999,2 51993  53.2179 274.9708 0001224  63.2769 284.3257 15.44868184  8485,6809.901999999999,93.212,432.601,430.934,0.0
51993.0,STARLINK-3648,PAYLOAD,2022-04-24 14:00:01,15.44746202,0.0001330999999999,53.2176,274.5772,55.017,36.2222,-0.015731,-0.00693119,0.0,0 STARLINK-3648,1 51993U 22025AP  22114.58334491 -.00693119  00000-0 -15731-1 0  9994,2 51993  53.2176 274.5772 0001331  55.0170  36.2222 15.44746202  3671,6810.261,93.219,433.032,431.219,0.0
51993.0,STARLINK-3648,PAYLOAD,2022-04-25 12:00:00,15.43401805,0.0001419999999999,53.2179,270.2446,57.0369,92.4944,-0.016384,-0.00689795,0.0,0 STARLINK-3648,1 51993U 22025AP  22115.50001157 -.00689795  00000-0 -16384-1 0  9997,2 51993  53.2179 270.2446 0001420  57.0369  92.4944 15.43401805  8638,6814.215,93.3,437.048,435.112,0.0
51993.0,STARLINK-3648,PAYLOAD,2022-04-25 14:00:01,15.43279527,0.0001419,53.2177,269.8518,62.3296,190.4624,-0.016441,-0.00689361,0.0,0 STARLINK-3648,1 51993U 22025AP  22115.58334491 -.00689361  00000-0 -16441-1 0  9998,2 51993  53.2177 269.8518 0001419  62.3296 190.4624 15.43279527  3695,6814.575,93.308,437.407,435.473,0.0
51993.0,STARLINK-3648,PAYLOAD,2022-04-25 22:00:00,15.42791008,0.0001192,53.2174,268.2798,76.5149,228.9538,-0.016686,-0.00688209,0.0,0 STARLINK-3648,1 51993U 22025AP  22115.91667824 -.00688209  00000-0 -16686-1 0  9995,2 51993  53.2174 268.2798 0001192  76.5149 228.9538 15.42791008  3689,6816.014,93.337,438.691,437.066,0.0
51993.0,STARLINK-3648,PAYLOAD,2022-04-26 12:00:00,15.41938481,0.0001327,53.2177,265.5287,60.5036,245.739,-0.017266,-0.00691704,0.0,0 STARLINK-3648,1 51993U 22025AP  22116.50001157 -.00691704  00000-0 -17266-1 0  9991,2 51993  53.2177 265.5287 0001327  60.5036 245.7390 15.41938481  8790,6818.526,93.389,441.295,439.486,0.0
51993.0,STARLINK-3648,PAYLOAD,2022-04-26 14:00:01,15.41816316,0.0001344,53.2176,265.1371,51.0306,358.0969,-0.017352,-0.00692262,0.0,0 STARLINK-3648,1 51993U 22025AP  22116.58335648 -.00692262  00000-0 -17352-1 0  9990,2 51993  53.2176 265.1371 0001344  51.0306 358.0969 15.41816316  3677,6818.886,93.396,441.667,439.834,0.0
51993.0,STARLINK-3648,PAYLOAD,2022-04-26 22:00:00,15.41326452,0.0001411,53.2171,263.5684,51.037,48.9435,-0.0175449999999999,-0.00688831,0.0,0 STARLINK-3648,1 51993U 22025AP  22116.91667824 -.00688831  00000-0 -17545-1 0  9992,2 51993  53.2171 263.5684 0001411  51.0370  48.9435 15.41326452  3633,6820.33,93.426,443.158,441.233,0.0
51993.0,STARLINK-3648,PAYLOAD,2022-04-27 12:00:00,15.40473679,0.0001392,53.2174,260.8235,54.7876,42.8866,-0.018149,-0.00692279,0.0,0 STARLINK-3648,1 51993U 22025AP  22117.50001157 -.00692279  00000-0 -18149-1 0  9991,2 51993  53.2174 260.8235 0001392  54.7876  42.8866 15.40473679  8940,6822.847,93.478,445.662,443.763,0.0
51993.0,STARLINK-3648,PAYLOAD,2022-04-27 14:00:01,15.40348742,0.0001501999999999,53.2174,260.4326,58.4398,141.6802,-0.018087,-0.00687439,0.0,0 STARLINK-3648,1 51993U 22025AP  22117.58335648 -.00687439  00000-0 -18087-1 0  9997,2 51993  53.2174 260.4326 0001502  58.4398 141.6802 15.40348742  3675,6823.215999999999,93.485,446.106,444.056,0.0
51993.0,STARLINK-3648,PAYLOAD,2022-04-28 14:00:01,15.38799094,0.0001188,53.2174,255.7341,67.718,278.0985,-0.015762,-0.00570163,0.0,0 STARLINK-3648,1 51993U 22025AP  22118.58334491 -.00570163  00000-0 -15762-1 0  9995,2 51993  53.2174 255.7341 0001188  67.7180 278.0985 15.38799094  3631,6827.795999999999,93.579,450.473,448.85,0.0
51993.0,STARLINK-3648,PAYLOAD,2022-04-28 20:00:01,15.38516854,0.0001254,53.2174,254.5676,73.0033,218.3658,-0.019146,-0.00685086,0.0,0 STARLINK-3648,1 51993U 22025AP  22118.83334491 -.00685086  00000-0 -19146-1 0  9994,2 51993  53.2174 254.5676 0001254  73.0033 218.3658 15.38516854  9158,6828.630999999999,93.597,451.353,449.64,0.0
51993.0,STARLINK-3648,PAYLOAD,2022-04-29 14:00:01,15.37420207,0.0001663,53.2174,251.0553,44.4085,81.7887,-0.019977,-0.00689349,0.0,0 STARLINK-3648,1 51993U 22025AP  22119.58334491 -.00689349  00000-0 -19977-1 0  9995,2 51993  53.2174 251.0553 0001663  44.4085  81.7887 15.37420207  3679,6831.878000000002,93.663,454.879,452.607,0.0
51993.0,STARLINK-3648,PAYLOAD,2022-04-29 20:00:01,15.37052566,0.0001301,53.2173,249.8867,55.4502,15.0294,-0.020118,-0.00686147,0.0,0 STARLINK-3648,1 51993U 22025AP  22119.83334491 -.00686147  00000-0 -20118-1 0  9995,2 51993  53.2173 249.8867 0001301  55.4502  15.0294 15.37052566  9303,6832.968000000003,93.686,455.722,453.944,0.0
51993.0,STARLINK-3648,PAYLOAD,2022-04-29 22:00:00,15.36932779,0.0001436,53.2173,249.4965,57.8348,113.9986,-0.020326,-0.00690246,0.0,0 STARLINK-3648,1 51993U 22025AP  22119.91667824 -.00690246  00000-0 -20326-1 0  9999,2 51993  53.2173 249.4965 0001436  57.8348 113.9986 15.36932779  3651,6833.323,93.693,456.169,454.206,0.0
51993.0,STARLINK-3648,PAYLOAD,2022-04-30 14:00:01,15.35954158,0.0001659,53.2175,246.3822,47.6788,213.6689,-0.020871,-0.00686921,0.0,0 STARLINK-3648,1 51993U 22025AP  22120.58334491 -.00686921  00000-0 -20871-1 0  9995,2 51993  53.2175 246.3822 0001659  47.6788 213.6689 15.35954158  3644,6836.225,93.753,459.224,456.956,0.0
51993.0,STARLINK-3648,PAYLOAD,2022-04-30 20:00:01,15.35587096,0.0001443,53.2174,245.216,60.3116,143.9984,-0.021051,-0.00684822,0.0,0 STARLINK-3648,1 51993U 22025AP  22120.83334491 -.00684822  00000-0 -21051-1 0  9992,2 51993  53.2174 245.2160 0001443  60.3116 143.9984 15.35587096  9466,6837.314,93.775,460.166,458.193,0.0
51993.0,STARLINK-3648,PAYLOAD,2022-04-30 22:00:00,15.35469524,0.0001293,53.2173,244.8266,64.19,241.0331,-0.021397,-0.00692802,0.0,0 STARLINK-3648,1 51993U 22025AP  22120.91667824 -.00692802  00000-0 -21397-1 0  9990,2 51993  53.2173 244.8266 0001293  64.1900 241.0331 15.35469524  3671,6837.663000000001,93.782,460.412,458.644,0.0
